[
    {
        "Altitude(m)": 605459.0028242394,
        "Argument of Periapsis(deg)": 0.0,
        "Eccentricity": 0.0,
        "Inclination(deg)": 60.0,
        "Latitude(deg)": 27.988129667190197,
        "Longitude(deg)": -97.20140439344594,
        "Mean Anomaly(deg)": -327.2727,
        "RAAN(deg)": 345.0,
        "Satellite Name": "Test1 1520",
        "Satellite Number": 1520,
        "Semi-Major Axis(m)": 6980739.136638005,
        "Time(s)": 0
    },
    {
        "Altitude(m)": 605535.7934934276,
        "Argument of Periapsis(deg)": 0.00010418945913296404,
        "Eccentricity": 0.0,
        "Inclination(deg)": 60.0,
        "Latitude(deg)": 28.50125905740598,
        "Longitude(deg)": -96.84445936349026,
        "Mean Anomaly(deg)": -326.65259385453817,
        "RAAN(deg)": 344.99957995086027,
        "Satellite Name": "Test1 1520",
        "Satellite Number": 1520,
        "Semi-Major Axis(m)": 6980739.136638005,
        "Time(s)": 10
    }
]